[{"OBJECT_NAME":"STARLINK-5375","OBJECT_ID":"2023-046BA","EPOCH":"2026-03-09T22:00:01.999584","MEAN_MOTION":15.08605244,"ECCENTRICITY":9.678e-5,"INCLINATION":43.0007,"RA_OF_ASC_NODE":144.5171,"ARG_OF_PERICENTER":295.9531,"MEAN_ANOMALY":244.7343,"EPHEMERIS_TYPE":0,"CLASSIFICATION_TYPE":"U","NORAD_CAT_ID":56140,"ELEMENT_SET_NO":999,"REV_AT_EPOCH":567,"BSTAR":0.00028450337,"MEAN_MOTION_DOT":4.313e-5,"MEAN_MOTION_DDOT":0},{"OBJECT_NAME":"STARLING 3","OBJECT_ID":"2023-100D","EPOCH":"2026-03-09T22:41:57.048288","MEAN_MOTION":15.11145977,"ECCENTRICITY":0.00066311,"INCLINATION":99.5096,"RA_OF_ASC_NODE":65.6477,"ARG_OF_PERICENTER":76.1122,"MEAN_ANOMALY":284.0839,"EPHEMERIS_TYPE":0,"CLASSIFICATION_TYPE":"U","NORAD_CAT_ID":57389,"ELEMENT_SET_NO":999,"REV_AT_EPOCH":14507,"BSTAR":0.00051487914,"MEAN_MOTION_DOT":8.551e-5,"MEAN_MOTION_DDOT":0}]
